{
  "type": "FeatureCollection",
  "features": [
    {
      "type": "Feature",
      "properties": {
        "norad_id": 66427,
        "name": "STARLINK-35611",
        "group": "last-30-days",
        "lat": -39.60316595838566,
        "lon": -14.294261680494971,
        "alt_km": 417.33618257860417,
        "timestamp": "2025-12-03T04:52:28.419874+00:00",
        "meta_object_name": "STARLINK-35611",
        "meta_object_id": "2025-259F",
        "meta_epoch": "2025-12-02T20:00:03.000384",
        "meta_mean_motion": 15.50666286,
        "meta_eccentricity": 0.0001634,
        "meta_inclination": 42.9999,
        "meta_ra_of_asc_node": 105.2612,
        "meta_arg_of_pericenter": 272.7861,
        "meta_mean_anomaly": 70.0007,
        "meta_ephemeris_type": 0,
        "meta_classification_type": "U",
        "meta_norad_cat_id": 66427,
        "meta_element_set_no": 999,
        "meta_rev_at_epoch": 468,
        "meta_bstar": -0.0025995,
        "meta_mean_motion_dot": -0.00150421,
        "meta_mean_motion_ddot": 0,
        "tle_line1": "1 66427U 25259F   25336.83336806 -.00150421  00000+0 -25995-2 0  9990",
        "tle_line2": "2 66427  42.9999 105.2612 0001634 272.7861  70.0007 15.50666286  4680"
      },
      "geometry": {
        "type": "Point",
        "coordinates": [
          -14.294261680494971,
          -39.60316595838566
        ]
      }
    },
    {
      "type": "Feature",
      "properties": {
        "norad_id": 66428,
        "name": "STARLINK-35610",
        "group": "last-30-days",
        "lat": -40.17514542236977,
        "lon": -11.937801926300018,
        "alt_km": 417.3627470042775,
        "timestamp": "2025-12-03T04:52:28.419884+00:00",
        "meta_object_name": "STARLINK-35610",
        "meta_object_id": "2025-259G",
        "meta_epoch": "2025-12-02T20:00:03.000384",
        "meta_mean_motion": 15.50642016,
        "meta_eccentricity": 0.0001528,
        "meta_inclination": 42.9998,
        "meta_ra_of_asc_node": 105.2565,
        "meta_arg_of_pericenter": 273.8032,
        "meta_mean_anomaly": 70.8885,
        "meta_ephemeris_type": 0,
        "meta_classification_type": "U",
        "meta_norad_cat_id": 66428,
        "meta_element_set_no": 999,
        "meta_rev_at_epoch": 468,
        "meta_bstar": -0.0015884,
        "meta_mean_motion_dot": -0.00092642,
        "meta_mean_motion_ddot": 0,
        "tle_line1": "1 66428U 25259G   25336.83336806 -.00092642  00000+0 -15884-2 0  9997",
        "tle_line2": "2 66428  42.9998 105.2565 0001528 273.8032  70.8885 15.50642016  4688"
      },
      "geometry": {
        "type": "Point",
        "coordinates": [
          -11.937801926300018,
          -40.17514542236977
        ]
      }
    },
    {
      "type": "Feature",
      "properties": {
        "norad_id": 66429,
        "name": "STARLINK-35533",
        "group": "last-30-days",
        "lat": -40.70065963197857,
        "lon": -9.533579225030133,
        "alt_km": 417.338714721398,
        "timestamp": "2025-12-03T04:52:28.419897+00:00",
        "meta_object_name": "STARLINK-35533",
        "meta_object_id": "2025-259H",
        "meta_epoch": "2025-12-02T20:00:03.000384",
        "meta_mean_motion": 15.50611302,
        "meta_eccentricity": 0.0001486,
        "meta_inclination": 42.9998,
        "meta_ra_of_asc_node": 105.2505,
        "meta_arg_of_pericenter": 272.0789,
        "meta_mean_anomaly": 74.5322,
        "meta_ephemeris_type": 0,
        "meta_classification_type": "U",
        "meta_norad_cat_id": 66429,
        "meta_element_set_no": 999,
        "meta_rev_at_epoch": 468,
        "meta_bstar": -0.0005032,
        "meta_mean_motion_dot": -0.00029784,
        "meta_mean_motion_ddot": 0,
        "tle_line1": "1 66429U 25259H   25336.83336806 -.00029784  00000+0 -50320-3 0  9990",
        "tle_line2": "2 66429  42.9998 105.2505 0001486 272.0789  74.5322 15.50611302  4687"
      },
      "geometry": {
        "type": "Point",
        "coordinates": [
          -9.533579225030133,
          -40.70065963197857
        ]
      }
    },
    {
      "type": "Feature",
      "properties": {
        "norad_id": 66430,
        "name": "STARLINK-35470",
        "group": "last-30-days",
        "lat": -41.17213660123389,
        "lon": -7.109207423016157,
        "alt_km": 417.2456472297408,
        "timestamp": "2025-12-03T04:52:28.419907+00:00",
        "meta_object_name": "STARLINK-35470",
        "meta_object_id": "2025-259J",
        "meta_epoch": "2025-12-02T20:00:03.000384",
        "meta_mean_motion": 15.50560375,
        "meta_eccentricity": 0.0001459,
        "meta_inclination": 42.9999,
        "meta_ra_of_asc_node": 105.246,
        "meta_arg_of_pericenter": 271.7547,
        "meta_mean_anomaly": 76.76,
        "meta_ephemeris_type": 0,
        "meta_classification_type": "U",
        "meta_norad_cat_id": 66430,
        "meta_element_set_no": 999,
        "meta_rev_at_epoch": 468,
        "meta_bstar": 0.0016047,
        "meta_mean_motion_dot": 0.00094882,
        "meta_mean_motion_ddot": 0,
        "tle_line1": "1 66430U 25259J   25336.83336806  .00094882  00000+0  16047-2 0  9998",
        "tle_line2": "2 66430  42.9999 105.2460 0001459 271.7547  76.7600 15.50560375  4684"
      },
      "geometry": {
        "type": "Point",
        "coordinates": [
          -7.109207423016157,
          -41.17213660123389
        ]
      }
    },
    {
      "type": "Feature",
      "properties": {
        "norad_id": 66431,
        "name": "STARLINK-35439",
        "group": "last-30-days",
        "lat": -41.59752641033315,
        "lon": -4.616353475814775,
        "alt_km": 417.2652868365767,
        "timestamp": "2025-12-03T04:52:28.419917+00:00",
        "meta_object_name": "STARLINK-35439",
        "meta_object_id": "2025-259K",
        "meta_epoch": "2025-12-02T20:00:03.000384",
        "meta_mean_motion": 15.50569638,
        "meta_eccentricity": 0.0001442,
        "meta_inclination": 42.9998,
        "meta_ra_of_asc_node": 105.2399,
        "meta_arg_of_pericenter": 267.4805,
        "meta_mean_anomaly": 82.9564,
        "meta_ephemeris_type": 0,
        "meta_classification_type": "U",
        "meta_norad_cat_id": 66431,
        "meta_element_set_no": 999,
        "meta_rev_at_epoch": 468,
        "meta_bstar": 0.0012295,
        "meta_mean_motion_dot": 0.00072434,
        "meta_mean_motion_ddot": 0,
        "tle_line1": "1 66431U 25259K   25336.83336806  .00072434  00000+0  12295-2 0  9999",
        "tle_line2": "2 66431  42.9998 105.2399 0001442 267.4805  82.9564 15.50569638  4685"
      },
      "geometry": {
        "type": "Point",
        "coordinates": [
          -4.616353475814775,
          -41.59752641033315
        ]
      }
    },
    {
      "type": "Feature",
      "properties": {
        "norad_id": 66432,
        "name": "STARLINK-35446",
        "group": "last-30-days",
        "lat": -41.96632478422425,
        "lon": -2.106168057163809,
        "alt_km": 417.2892580953285,
        "timestamp": "2025-12-03T04:52:28.419929+00:00",
        "meta_object_name": "STARLINK-35446",
        "meta_object_id": "2025-259L",
        "meta_epoch": "2025-12-02T20:00:03.000384",
        "meta_mean_motion": 15.50598654,
        "meta_eccentricity": 0.0001528,
        "meta_inclination": 42.9999,
        "meta_ra_of_asc_node": 105.2349,
        "meta_arg_of_pericenter": 268.9992,
        "meta_mean_anomaly": 83.3484,
        "meta_ephemeris_type": 0,
        "meta_classification_type": "U",
        "meta_norad_cat_id": 66432,
        "meta_element_set_no": 999,
        "meta_rev_at_epoch": 468,
        "meta_bstar": 2.1062e-05,
        "meta_mean_motion_dot": 8.95e-06,
        "meta_mean_motion_ddot": 0,
        "tle_line1": "1 66432U 25259L   25336.83336806  .00000895  00000+0  21062-4 0  9996",
        "tle_line2": "2 66432  42.9999 105.2349 0001528 268.9992  83.3484 15.50598654  4686"
      },
      "geometry": {
        "type": "Point",
        "coordinates": [
          -2.106168057163809,
          -41.96632478422425
        ]
      }
    },
    {
      "type": "Feature",
      "properties": {
        "norad_id": 66433,
        "name": "STARLINK-35457",
        "group": "last-30-days",
        "lat": -42.2818207006713,
        "lon": 0.45359194891157306,
        "alt_km": 417.41912037185193,
        "timestamp": "2025-12-03T04:52:28.419939+00:00",
        "meta_object_name": "STARLINK-35457",
        "meta_object_id": "2025-259M",
        "meta_epoch": "2025-12-02T20:00:03.000384",
        "meta_mean_motion": 15.506265,
        "meta_eccentricity": 0.0001425,
        "meta_inclination": 42.9999,
        "meta_ra_of_asc_node": 105.2318,
        "meta_arg_of_pericenter": 271.3259,
        "meta_mean_anomaly": 82.9438,
        "meta_ephemeris_type": 0,
        "meta_classification_type": "U",
        "meta_norad_cat_id": 66433,
        "meta_element_set_no": 999,
        "meta_rev_at_epoch": 468,
        "meta_bstar": -0.001001,
        "meta_mean_motion_dot": -0.00058728,
        "meta_mean_motion_ddot": 0,
        "tle_line1": "1 66433U 25259M   25336.83336806 -.00058728  00000+0 -10010-2 0  9996",
        "tle_line2": "2 66433  42.9999 105.2318 0001425 271.3259  82.9438 15.50626500  4689"
      },
      "geometry": {
        "type": "Point",
        "coordinates": [
          0.45359194891157306,
          -42.2818207006713
        ]
      }
    }
  ]
}